{
  "type": "FeatureCollection",
  "schemaVersion": 1,
  "archivedAt": "2026-07-29",
  "reason": "Første generations brede zoner fra RavRadar 2.2, erstattet af detaljerede DK-B-zoner. Ikke runtime-data.",
  "features": [
    {
      "type": "Feature",
      "properties": {
        "id": "DK-NW-01",
        "name": "Skagen og Grenen",
        "region": "Nordjyllands nordspids",
        "coastType": "west",
        "onshoreDirectionDeg": 225,
        "shallowWater": false,
        "reefs": true,
        "seagrass": false,
        "dataPoint": [
          10.61,
          57.74
        ],
        "pinPoint": [
          10.63,
          57.74
        ],
        "zoneStatus": "legacy",
        "supersededByBatch": "B01"
      },
      "geometry": {
        "type": "Polygon",
        "coordinates": [
          [
            [
              10.45,
              57.64
            ],
            [
              10.77,
              57.64
            ],
            [
              10.77,
              57.84
            ],
            [
              10.45,
              57.84
            ],
            [
              10.45,
              57.64
            ]
          ]
        ]
      }
    },
    {
      "type": "Feature",
      "properties": {
        "id": "DK-NW-02",
        "name": "Lønstrup og Løkken",
        "region": "Nordjyllands vestkyst",
        "coastType": "west",
        "onshoreDirectionDeg": 90,
        "shallowWater": false,
        "reefs": true,
        "seagrass": false,
        "dataPoint": [
          9.72,
          57.38
        ],
        "pinPoint": [
          9.66,
          57.38
        ],
        "zoneStatus": "legacy",
        "supersededByBatch": "B01"
      },
      "geometry": {
        "type": "Polygon",
        "coordinates": [
          [
            [
              9.56,
              57.28
            ],
            [
              9.88,
              57.28
            ],
            [
              9.88,
              57.480000000000004
            ],
            [
              9.56,
              57.480000000000004
            ],
            [
              9.56,
              57.28
            ]
          ]
        ]
      }
    },
    {
      "type": "Feature",
      "properties": {
        "id": "DK-NW-03",
        "name": "Blokhus og Saltum",
        "region": "Nordjyllands vestkyst",
        "coastType": "west",
        "onshoreDirectionDeg": 90,
        "shallowWater": false,
        "reefs": true,
        "seagrass": false,
        "dataPoint": [
          9.61,
          57.25
        ],
        "pinPoint": [
          9.58,
          57.25
        ],
        "zoneStatus": "legacy",
        "supersededByBatch": "B01"
      },
      "geometry": {
        "type": "Polygon",
        "coordinates": [
          [
            [
              9.45,
              57.15
            ],
            [
              9.77,
              57.15
            ],
            [
              9.77,
              57.35
            ],
            [
              9.45,
              57.35
            ],
            [
              9.45,
              57.15
            ]
          ]
        ]
      }
    },
    {
      "type": "Feature",
      "properties": {
        "id": "DK-W-01",
        "name": "Thy og Vorupør",
        "region": "Vestkysten",
        "coastType": "west",
        "onshoreDirectionDeg": 90,
        "shallowWater": false,
        "reefs": true,
        "seagrass": false,
        "dataPoint": [
          8.38,
          56.95
        ],
        "pinPoint": [
          8.36,
          56.95
        ],
        "zoneStatus": "legacy",
        "supersededByBatch": "B01"
      },
      "geometry": {
        "type": "Polygon",
        "coordinates": [
          [
            [
              8.22,
              56.85
            ],
            [
              8.540000000000001,
              56.85
            ],
            [
              8.540000000000001,
              57.050000000000004
            ],
            [
              8.22,
              57.050000000000004
            ],
            [
              8.22,
              56.85
            ]
          ]
        ]
      }
    },
    {
      "type": "Feature",
      "properties": {
        "id": "DK-W-02",
        "name": "Hvide Sande og Søndervig",
        "region": "Vestkysten",
        "coastType": "west",
        "onshoreDirectionDeg": 90,
        "shallowWater": false,
        "reefs": true,
        "seagrass": false,
        "dataPoint": [
          8.12,
          56.02
        ],
        "pinPoint": [
          8.1,
          56.02
        ],
        "zoneStatus": "legacy",
        "supersededByBatch": "B03"
      },
      "geometry": {
        "type": "Polygon",
        "coordinates": [
          [
            [
              7.959999999999999,
              55.92
            ],
            [
              8.28,
              55.92
            ],
            [
              8.28,
              56.120000000000005
            ],
            [
              7.959999999999999,
              56.120000000000005
            ],
            [
              7.959999999999999,
              55.92
            ]
          ]
        ]
      }
    },
    {
      "type": "Feature",
      "properties": {
        "id": "DK-W-03",
        "name": "Blåvand og Vejers",
        "region": "Vestkysten",
        "coastType": "west",
        "onshoreDirectionDeg": 90,
        "shallowWater": false,
        "reefs": true,
        "seagrass": false,
        "dataPoint": [
          8.13,
          55.57
        ],
        "pinPoint": [
          8.13,
          55.57
        ],
        "zoneStatus": "legacy",
        "supersededByBatch": "B03"
      },
      "geometry": {
        "type": "Polygon",
        "coordinates": [
          [
            [
              7.970000000000001,
              55.47
            ],
            [
              8.290000000000001,
              55.47
            ],
            [
              8.290000000000001,
              55.67
            ],
            [
              7.970000000000001,
              55.67
            ],
            [
              7.970000000000001,
              55.47
            ]
          ]
        ]
      }
    },
    {
      "type": "Feature",
      "properties": {
        "id": "DK-NE-01",
        "name": "Voerså og Asaa",
        "region": "Nordjyllands østkyst",
        "coastType": "east",
        "onshoreDirectionDeg": 270,
        "shallowWater": true,
        "reefs": true,
        "seagrass": true,
        "dataPoint": [
          10.35,
          57.18
        ],
        "pinPoint": [
          10.49,
          57.18
        ],
        "zoneStatus": "legacy",
        "supersededByBatch": "B02"
      },
      "geometry": {
        "type": "Polygon",
        "coordinates": [
          [
            [
              10.23,
              57.105
            ],
            [
              10.469999999999999,
              57.105
            ],
            [
              10.469999999999999,
              57.255
            ],
            [
              10.23,
              57.255
            ],
            [
              10.23,
              57.105
            ]
          ]
        ]
      }
    },
    {
      "type": "Feature",
      "properties": {
        "id": "DK-NE-02",
        "name": "Sæby og Frederikshavn",
        "region": "Nordjyllands østkyst",
        "coastType": "east",
        "onshoreDirectionDeg": 270,
        "shallowWater": true,
        "reefs": true,
        "seagrass": true,
        "dataPoint": [
          10.54,
          57.36
        ],
        "pinPoint": [
          10.53,
          57.36
        ],
        "zoneStatus": "legacy",
        "supersededByBatch": "B02"
      },
      "geometry": {
        "type": "Polygon",
        "coordinates": [
          [
            [
              10.42,
              57.285
            ],
            [
              10.659999999999998,
              57.285
            ],
            [
              10.659999999999998,
              57.435
            ],
            [
              10.42,
              57.435
            ],
            [
              10.42,
              57.285
            ]
          ]
        ]
      }
    },
    {
      "type": "Feature",
      "properties": {
        "id": "DK-E-01",
        "name": "Øster Hurup og Helberskov",
        "region": "Kattegatkysten",
        "coastType": "east",
        "onshoreDirectionDeg": 270,
        "shallowWater": true,
        "reefs": true,
        "seagrass": true,
        "dataPoint": [
          10.25,
          56.8
        ],
        "pinPoint": [
          10.32,
          56.8
        ],
        "zoneStatus": "legacy",
        "supersededByBatch": "B02"
      },
      "geometry": {
        "type": "Polygon",
        "coordinates": [
          [
            [
              10.13,
              56.724999999999994
            ],
            [
              10.37,
              56.724999999999994
            ],
            [
              10.37,
              56.875
            ],
            [
              10.13,
              56.875
            ],
            [
              10.13,
              56.724999999999994
            ]
          ]
        ]
      }
    },
    {
      "type": "Feature",
      "properties": {
        "id": "DK-E-02",
        "name": "Djursland nord og øst",
        "region": "Djursland",
        "coastType": "east",
        "onshoreDirectionDeg": 260,
        "shallowWater": true,
        "reefs": true,
        "seagrass": true,
        "dataPoint": [
          10.82,
          56.43
        ],
        "pinPoint": [
          10.94,
          56.43
        ],
        "coastLine": [
          [
            10.954691,
            56.437263
          ],
          [
            10.923194,
            56.416593
          ],
          [
            10.921824,
            56.402526
          ]
        ],
        "coastLineSource": "GSHHS coastline; 45 m landward offset from mapped shoreline",
        "coastLineVersion": "2.6.24",
        "onshoreDirectionSource": "restored documented pre-audit direction; point bearing is not accepted as land-sea proof",
        "onshoreDirectionAuditedAt": "2026-07-26",
        "onshoreDirectionReviewStatus": "restored-after-invalid-point-bearing-audit"
      },
      "geometry": {
        "type": "Polygon",
        "coordinates": [
          [
            [
              10.700000000000001,
              56.355
            ],
            [
              10.94,
              56.355
            ],
            [
              10.94,
              56.505
            ],
            [
              10.700000000000001,
              56.505
            ],
            [
              10.700000000000001,
              56.355
            ]
          ]
        ]
      }
    },
    {
      "type": "Feature",
      "properties": {
        "id": "DK-E-03",
        "name": "Aarhusbugten og Odder",
        "region": "Østjylland",
        "coastType": "east",
        "onshoreDirectionDeg": 270,
        "shallowWater": true,
        "reefs": false,
        "seagrass": true,
        "dataPoint": [
          10.2,
          56.05
        ],
        "pinPoint": [
          10.26,
          56.05
        ],
        "coastLine": [
          [
            10.259065,
            56.071245
          ],
          [
            10.274665,
            56.047772
          ],
          [
            10.274513,
            56.046729
          ],
          [
            10.26313,
            56.022527
          ],
          [
            10.264308,
            56.022012
          ],
          [
            10.268011,
            56.021413
          ]
        ],
        "coastLineSource": "GSHHS coastline; 45 m landward offset from mapped shoreline",
        "coastLineVersion": "2.6.24",
        "onshoreDirectionSource": "restored documented pre-audit direction; point bearing is not accepted as land-sea proof",
        "onshoreDirectionAuditedAt": "2026-07-26",
        "onshoreDirectionReviewStatus": "restored-after-invalid-point-bearing-audit"
      },
      "geometry": {
        "type": "Polygon",
        "coordinates": [
          [
            [
              10.08,
              55.974999999999994
            ],
            [
              10.319999999999999,
              55.974999999999994
            ],
            [
              10.319999999999999,
              56.125
            ],
            [
              10.08,
              56.125
            ],
            [
              10.08,
              55.974999999999994
            ]
          ]
        ]
      }
    },
    {
      "type": "Feature",
      "properties": {
        "id": "DK-E-04",
        "name": "Vejle Fjord til Lillebælt",
        "region": "Østjylland",
        "coastType": "east",
        "onshoreDirectionDeg": 280,
        "shallowWater": true,
        "reefs": false,
        "seagrass": true,
        "dataPoint": [
          9.75,
          55.62
        ],
        "pinPoint": [
          9.76,
          55.62
        ],
        "coastLine": [
          [
            9.606799,
            55.692202
          ],
          [
            9.667957,
            55.694045
          ],
          [
            9.669792,
            55.69398
          ],
          [
            9.74074,
            55.657837
          ],
          [
            9.755049,
            55.628685
          ],
          [
            9.75673,
            55.625512
          ],
          [
            9.757913,
            55.624876
          ],
          [
            9.784799,
            55.624337
          ],
          [
            9.861015,
            55.623302
          ],
          [
            9.860329,
            55.622774
          ],
          [
            9.799584,
            55.594596
          ],
          [
            9.782495,
            55.573953
          ]
        ],
        "coastLineSource": "GSHHS coastline; 45 m landward offset from mapped shoreline",
        "coastLineVersion": "2.6.24",
        "onshoreDirectionSource": "restored documented pre-audit direction; point bearing is not accepted as land-sea proof",
        "onshoreDirectionAuditedAt": "2026-07-26",
        "onshoreDirectionReviewStatus": "restored-after-invalid-point-bearing-audit"
      },
      "geometry": {
        "type": "Polygon",
        "coordinates": [
          [
            [
              9.63,
              55.544999999999995
            ],
            [
              9.87,
              55.544999999999995
            ],
            [
              9.87,
              55.695
            ],
            [
              9.63,
              55.695
            ],
            [
              9.63,
              55.544999999999995
            ]
          ]
        ]
      }
    },
    {
      "type": "Feature",
      "properties": {
        "id": "DK-FYN-01",
        "name": "Nordfyn og Kerteminde",
        "region": "Fyn",
        "coastType": "east",
        "onshoreDirectionDeg": 225,
        "shallowWater": true,
        "reefs": true,
        "seagrass": true,
        "dataPoint": [
          10.55,
          55.55
        ],
        "pinPoint": [
          10.58,
          55.55
        ],
        "coastLine": [
          [
            10.532501,
            55.467244
          ],
          [
            10.62371,
            55.489409
          ],
          [
            10.624367,
            55.490169
          ],
          [
            10.619919,
            55.503973
          ],
          [
            10.619029,
            55.5048
          ],
          [
            10.566085,
            55.519552
          ],
          [
            10.590601,
            55.533453
          ],
          [
            10.628712,
            55.51924
          ],
          [
            10.629566,
            55.519209
          ],
          [
            10.609973,
            55.556683
          ],
          [
            10.594892,
            55.584806
          ],
          [
            10.595001,
            55.585829
          ],
          [
            10.601615,
            55.595943
          ],
          [
            10.602296,
            55.596174
          ],
          [
            10.613667,
            55.580054
          ]
        ],
        "coastLineSource": "GSHHS coastline; 45 m landward offset from mapped shoreline",
        "coastLineVersion": "2.6.24",
        "onshoreDirectionSource": "restored documented pre-audit direction; point bearing is not accepted as land-sea proof",
        "onshoreDirectionAuditedAt": "2026-07-26",
        "onshoreDirectionReviewStatus": "restored-after-invalid-point-bearing-audit"
      },
      "geometry": {
        "type": "Polygon",
        "coordinates": [
          [
            [
              10.430000000000001,
              55.474999999999994
            ],
            [
              10.67,
              55.474999999999994
            ],
            [
              10.67,
              55.625
            ],
            [
              10.430000000000001,
              55.625
            ],
            [
              10.430000000000001,
              55.474999999999994
            ]
          ]
        ]
      }
    },
    {
      "type": "Feature",
      "properties": {
        "id": "DK-SJ-01",
        "name": "Sjællands Odde og Odsherred",
        "region": "Nordvestsjælland",
        "coastType": "east",
        "onshoreDirectionDeg": 180,
        "shallowWater": true,
        "reefs": true,
        "seagrass": true,
        "dataPoint": [
          11.47,
          55.93
        ],
        "pinPoint": [
          11.5,
          55.93
        ],
        "coastLine": [
          [
            11.450954,
            55.84245
          ],
          [
            11.503656,
            55.852782
          ],
          [
            11.504852,
            55.853531
          ],
          [
            11.532877,
            55.88556
          ],
          [
            11.521375,
            55.931726
          ],
          [
            11.475741,
            55.941304
          ],
          [
            11.420818,
            55.952203
          ],
          [
            11.30146,
            55.976321
          ],
          [
            11.300442,
            55.977141
          ],
          [
            11.297662,
            55.981169
          ]
        ],
        "coastLineSource": "GSHHS coastline; 45 m landward offset from mapped shoreline",
        "coastLineVersion": "2.6.24",
        "onshoreDirectionSource": "restored documented pre-audit direction; point bearing is not accepted as land-sea proof",
        "onshoreDirectionAuditedAt": "2026-07-26",
        "onshoreDirectionReviewStatus": "restored-after-invalid-point-bearing-audit"
      },
      "geometry": {
        "type": "Polygon",
        "coordinates": [
          [
            [
              11.350000000000001,
              55.855
            ],
            [
              11.59,
              55.855
            ],
            [
              11.59,
              56.005
            ],
            [
              11.350000000000001,
              56.005
            ],
            [
              11.350000000000001,
              55.855
            ]
          ]
        ]
      }
    },
    {
      "type": "Feature",
      "properties": {
        "id": "DK-SJ-02",
        "name": "Nordsjælland og Øresund",
        "region": "Nordsjælland",
        "coastType": "east",
        "onshoreDirectionDeg": 225,
        "shallowWater": true,
        "reefs": false,
        "seagrass": true,
        "dataPoint": [
          12.35,
          56.05
        ],
        "pinPoint": [
          12.45,
          56.05
        ],
        "coastLine": [
          [
            12.260862,
            56.123149
          ],
          [
            12.309399,
            56.130716
          ],
          [
            12.311061,
            56.130299
          ],
          [
            12.390035,
            56.100873
          ],
          [
            12.532133,
            56.084704
          ],
          [
            12.624798,
            56.039122
          ],
          [
            12.610029,
            56.02273
          ]
        ],
        "coastLineSource": "GSHHS coastline; 45 m landward offset from mapped shoreline",
        "coastLineVersion": "2.6.24",
        "onshoreDirectionSource": "restored documented pre-audit direction; point bearing is not accepted as land-sea proof",
        "onshoreDirectionAuditedAt": "2026-07-26",
        "onshoreDirectionReviewStatus": "restored-after-invalid-point-bearing-audit"
      },
      "geometry": {
        "type": "Polygon",
        "coordinates": [
          [
            [
              12.23,
              55.974999999999994
            ],
            [
              12.469999999999999,
              55.974999999999994
            ],
            [
              12.469999999999999,
              56.125
            ],
            [
              12.23,
              56.125
            ],
            [
              12.23,
              55.974999999999994
            ]
          ]
        ]
      }
    },
    {
      "type": "Feature",
      "properties": {
        "id": "DK-SJ-03",
        "name": "Stevns og Sydsjælland",
        "region": "Sydøstsjælland",
        "coastType": "east",
        "onshoreDirectionDeg": 300,
        "shallowWater": true,
        "reefs": true,
        "seagrass": true,
        "dataPoint": [
          12.35,
          55.3
        ],
        "pinPoint": [
          12.46,
          55.3
        ],
        "coastLine": [
          [
            12.350102,
            55.398151
          ],
          [
            12.370865,
            55.396717
          ],
          [
            12.372449,
            55.396239
          ],
          [
            12.438703,
            55.357462
          ],
          [
            12.439674,
            55.356586
          ],
          [
            12.458108,
            55.28255
          ],
          [
            12.456958,
            55.281788
          ],
          [
            12.432198,
            55.269975
          ],
          [
            12.357702,
            55.234625
          ],
          [
            12.356109,
            55.234197
          ],
          [
            12.29962,
            55.238188
          ]
        ],
        "coastLineSource": "GSHHS coastline; 45 m landward offset from mapped shoreline",
        "coastLineVersion": "2.6.24",
        "onshoreDirectionSource": "restored documented pre-audit direction; point bearing is not accepted as land-sea proof",
        "onshoreDirectionAuditedAt": "2026-07-26",
        "onshoreDirectionReviewStatus": "restored-after-invalid-point-bearing-audit"
      },
      "geometry": {
        "type": "Polygon",
        "coordinates": [
          [
            [
              12.23,
              55.224999999999994
            ],
            [
              12.469999999999999,
              55.224999999999994
            ],
            [
              12.469999999999999,
              55.375
            ],
            [
              12.23,
              55.375
            ],
            [
              12.23,
              55.224999999999994
            ]
          ]
        ]
      }
    },
    {
      "type": "Feature",
      "properties": {
        "id": "DK-LF-01",
        "name": "Lolland-Falster sydkyst",
        "region": "Sydhavsøerne",
        "coastType": "east",
        "onshoreDirectionDeg": 0,
        "shallowWater": true,
        "reefs": false,
        "seagrass": true,
        "dataPoint": [
          11.75,
          54.63
        ],
        "pinPoint": [
          11.78,
          54.65
        ],
        "coastLine": [
          [
            11.813998,
            54.724597
          ],
          [
            11.809506,
            54.711977
          ],
          [
            11.86045,
            54.684892
          ],
          [
            11.861012,
            54.684108
          ],
          [
            11.809137,
            54.640622
          ],
          [
            11.807425,
            54.640731
          ],
          [
            11.759996,
            54.647502
          ],
          [
            11.730531,
            54.651474
          ],
          [
            11.729519,
            54.652119
          ],
          [
            11.728142,
            54.662883
          ],
          [
            11.727502,
            54.662785
          ],
          [
            11.714602,
            54.650768
          ],
          [
            11.713029,
            54.65114
          ],
          [
            11.665647,
            54.666063
          ],
          [
            11.664266,
            54.666224
          ],
          [
            11.659535,
            54.656859
          ],
          [
            11.658223,
            54.656448
          ],
          [
            11.6136,
            54.657153
          ]
        ],
        "coastLineSource": "GSHHS coastline; 45 m landward offset from mapped shoreline",
        "coastLineVersion": "2.6.24",
        "onshoreDirectionSource": "restored documented pre-audit direction; point bearing is not accepted as land-sea proof",
        "onshoreDirectionAuditedAt": "2026-07-26",
        "onshoreDirectionReviewStatus": "restored-after-invalid-point-bearing-audit"
      },
      "geometry": {
        "type": "Polygon",
        "coordinates": [
          [
            [
              11.63,
              54.555
            ],
            [
              11.87,
              54.555
            ],
            [
              11.87,
              54.705000000000005
            ],
            [
              11.63,
              54.705000000000005
            ],
            [
              11.63,
              54.555
            ]
          ]
        ]
      }
    },
    {
      "type": "Feature",
      "properties": {
        "id": "DK-BH-01",
        "name": "Bornholms kyster",
        "region": "Bornholm",
        "coastType": "east",
        "onshoreDirectionDeg": 270,
        "shallowWater": true,
        "reefs": true,
        "seagrass": true,
        "dataPoint": [
          14.87,
          55.12
        ],
        "pinPoint": [
          14.88,
          55.12
        ],
        "coastLine": [
          [
            14.999924,
            54.998298
          ],
          [
            14.995043,
            54.999887
          ],
          [
            14.828217,
            55.039166
          ],
          [
            14.770793,
            55.052773
          ],
          [
            14.680172,
            55.093231
          ],
          [
            14.698063,
            55.118175
          ]
        ],
        "coastLineSource": "GSHHS coastline; 45 m landward offset from mapped shoreline",
        "coastLineVersion": "2.6.24",
        "onshoreDirectionSource": "restored documented pre-audit direction; point bearing is not accepted as land-sea proof",
        "onshoreDirectionAuditedAt": "2026-07-26",
        "onshoreDirectionReviewStatus": "restored-after-invalid-point-bearing-audit"
      },
      "geometry": {
        "type": "Polygon",
        "coordinates": [
          [
            [
              14.75,
              55.044999999999995
            ],
            [
              14.989999999999998,
              55.044999999999995
            ],
            [
              14.989999999999998,
              55.195
            ],
            [
              14.75,
              55.195
            ],
            [
              14.75,
              55.044999999999995
            ]
          ]
        ]
      }
    },
    {
      "type": "Feature",
      "properties": {
        "id": "DK-LIM-01",
        "name": "Limfjorden vest",
        "region": "Limfjorden",
        "coastType": "limfjord",
        "onshoreDirectionDeg": 90,
        "shallowWater": true,
        "reefs": false,
        "seagrass": true,
        "dataPoint": [
          8.72,
          56.73
        ],
        "pinPoint": [
          8.7,
          56.73
        ],
        "coastLine": [
          [
            8.63803,
            56.677752
          ],
          [
            8.594883,
            56.716605
          ],
          [
            8.593546,
            56.717335
          ],
          [
            8.550704,
            56.728102
          ],
          [
            8.549007,
            56.728014
          ],
          [
            8.518442,
            56.716276
          ],
          [
            8.518307,
            56.716721
          ],
          [
            8.553416,
            56.77071
          ]
        ],
        "coastLineSource": "GSHHS coastline; 45 m landward offset from mapped shoreline",
        "coastLineVersion": "2.6.24",
        "onshoreDirectionSource": "restored documented pre-audit direction; point bearing is not accepted as land-sea proof",
        "onshoreDirectionAuditedAt": "2026-07-26",
        "onshoreDirectionReviewStatus": "restored-after-invalid-point-bearing-audit"
      },
      "geometry": {
        "type": "Polygon",
        "coordinates": [
          [
            [
              8.56,
              56.675
            ],
            [
              8.88,
              56.675
            ],
            [
              8.88,
              56.785
            ],
            [
              8.56,
              56.785
            ],
            [
              8.56,
              56.675
            ]
          ]
        ]
      }
    },
    {
      "type": "Feature",
      "properties": {
        "id": "DK-LIM-02",
        "name": "Limfjorden midt",
        "region": "Limfjorden",
        "coastType": "limfjord",
        "onshoreDirectionDeg": 180,
        "shallowWater": true,
        "reefs": false,
        "seagrass": true,
        "dataPoint": [
          9.22,
          56.83
        ],
        "pinPoint": [
          9.22,
          56.83
        ],
        "coastLine": [
          [
            9.175202,
            56.870925
          ],
          [
            9.206611,
            56.846146
          ],
          [
            9.19754,
            56.832677
          ],
          [
            9.173886,
            56.795748
          ],
          [
            9.174189,
            56.79472
          ],
          [
            9.191113,
            56.765895
          ],
          [
            9.192591,
            56.765232
          ],
          [
            9.24553,
            56.746427
          ],
          [
            9.245329,
            56.745553
          ],
          [
            9.231781,
            56.729972
          ]
        ],
        "coastLineSource": "GSHHS coastline; 45 m landward offset from mapped shoreline",
        "coastLineVersion": "2.6.24",
        "onshoreDirectionSource": "restored documented pre-audit direction; point bearing is not accepted as land-sea proof",
        "onshoreDirectionAuditedAt": "2026-07-26",
        "onshoreDirectionReviewStatus": "restored-after-invalid-point-bearing-audit"
      },
      "geometry": {
        "type": "Polygon",
        "coordinates": [
          [
            [
              9.06,
              56.775
            ],
            [
              9.38,
              56.775
            ],
            [
              9.38,
              56.885
            ],
            [
              9.06,
              56.885
            ],
            [
              9.06,
              56.775
            ]
          ]
        ]
      }
    },
    {
      "type": "Feature",
      "properties": {
        "id": "DK-LIM-03",
        "name": "Limfjorden øst",
        "region": "Limfjorden øst – Aalborg til Hals",
        "coastType": "limfjord",
        "onshoreDirectionDeg": 270,
        "shallowWater": true,
        "reefs": false,
        "seagrass": true,
        "dataPoint": [
          10.155,
          57.045
        ],
        "pinPoint": [
          10.115,
          57.066
        ],
        "locationCorrection": "2.6.8: flyttet fra land syd for fjorden til den østlige Limfjord",
        "coastLine": [
          [
            10.281957,
            56.98954
          ],
          [
            10.231716,
            56.986483
          ],
          [
            10.277158,
            56.983517
          ]
        ],
        "coastLineSource": "GSHHS coastline; 45 m landward offset from mapped shoreline",
        "coastLineVersion": "2.6.24",
        "onshoreDirectionSource": "restored documented pre-audit direction; point bearing is not accepted as land-sea proof",
        "onshoreDirectionAuditedAt": "2026-07-26",
        "onshoreDirectionReviewStatus": "restored-after-invalid-point-bearing-audit"
      },
      "geometry": {
        "type": "Polygon",
        "coordinates": [
          [
            [
              9.98,
              57.015
            ],
            [
              10.27,
              57.015
            ],
            [
              10.27,
              57.105
            ],
            [
              9.98,
              57.105
            ],
            [
              9.98,
              57.015
            ]
          ]
        ]
      }
    }
  ]
}